OBJECT_NAME,OBJECT_ID,EPOCH,MEAN_MOTION,ECCENTRICITY,INCLINATION,RA_OF_ASC_NODE,ARG_OF_PERICENTER,MEAN_ANOMALY,EPHEMERIS_TYPE,CLASSIFICATION_TYPE,NORAD_CAT_ID,ELEMENT_SET_NO,REV_AT_EPOCH,BSTAR,MEAN_MOTION_DOT,MEAN_MOTION_DDOT
SKYSAT-C4,2016-058B,2026-07-01T00:42:10.715616,15.49022400,.000251,96.9165,203.2248,137.9147,222.2298,0,U,41771,999,54761,.38714E-3,.20906E-3,0
SKYSAT-C5,2016-058C,2026-07-01T01:24:05.302080,15.34666451,.000177,97.0459,222.0804,196.4961,163.6226,0,U,41772,999,54587,.29014E-3,.9675E-4,0
SKYSAT-C2,2016-058D,2026-07-01T00:21:22.408416,15.42382724,.000334,97.0157,203.5909,38.8322,321.3166,0,U,41773,999,54718,.33264E-3,.1429E-3,0
SKYSAT-C3,2016-058E,2026-07-01T01:30:26.764128,15.53133828,.0001375,96.9000,212.3802,130.0913,230.0462,0,U,41774,999,54826,.49848E-3,.31215E-3,0
ALSAT-1B,2016-059C,2026-07-01T04:08:35.405664,14.72283624,.0009225,97.7743,190.3325,172.0786,188.0569,0,U,41785,999,52263,.16573E-5,-.37E-6,0
PATHFINDER 1,2016-059E,2026-06-30T23:25:58.839744,14.67678797,.0028926,97.8168,180.6304,159.5279,200.7093,0,U,41787,999,52173,.12102E-3,.646E-5,0
SCATSAT 1,2016-059H,2026-07-01T01:51:25.763328,14.79557620,.0054163,98.1186,245.9867,201.9871,157.9016,0,U,41790,999,10364,.19679E-3,.1452E-4,0
GOKTURK 1A,2016-073A,2026-07-01T03:09:39.394944,14.62784134,.0001428,98.1241,76.5875,77.6673,282.4689,0,U,41875,999,51086,.78755E-4,.355E-5,0
RESOURCESAT-2A,2016-074A,2026-07-01T03:32:02.426784,14.21603959,.0003096,98.7531,255.5373,56.8145,303.3329,0,U,41877,999,49628,-.99425E-4,-.262E-5,0
CARTOSAT-2D,2017-008A,2026-07-01T04:29:52.423584,15.19310571,.0005225,97.4099,241.2317,179.1689,180.9556,0,U,41948,999,51970,.21454E-3,.4463E-4,0
SENTINEL-2B,2017-013A,2026-07-01T04:38:37.871232,14.30819877,.000121,98.5696,256.7701,90.7816,269.3505,0,U,42063,999,48664,-.33302E-4,-.131E-5,0
CARTOSAT-2E,2017-036C,2026-07-01T04:55:29.578944,15.19271462,.0002334,97.4270,241.7760,243.8457,116.2537,0,U,42767,999,50027,.16528E-3,.3418E-4,0
FORMOSAT-5,2017-049A,2026-07-01T02:54:48.358656,14.50903839,.0012229,98.2252,257.1215,45.4196,314.7995,0,U,42920,999,46869,.54921E-4,.173E-5,0
SENTINEL-5P,2017-064A,2026-07-01T02:06:09.727776,14.19521235,.0001034,98.7927,124.1201,90.4934,269.6360,0,U,42969,999,45153,.47282E-4,.55E-6,0
SKYSAT-C11,2017-068A,2026-06-30T20:44:21.939648,15.58601191,.0000518,97.4363,331.2973,147.4382,212.6906,0,U,42987,999,48537,.41486E-3,.31749E-3,0
SKYSAT-C10,2017-068B,2026-07-01T02:45:04.874400,15.34869166,.0001239,97.4524,319.0999,107.8113,252.3265,0,U,42988,999,48449,.31021E-3,.10411E-3,0
SKYSAT-C9,2017-068C,2026-07-01T04:38:35.651616,15.41906433,.0009439,97.4445,320.2490,89.2062,271.0266,0,U,42989,999,48491,.39911E-3,.16913E-3,0
SKYSAT-C8,2017-068D,2026-07-01T03:06:51.993216,15.37245169,.0001314,97.4541,318.9685,94.5977,265.5418,0,U,42990,999,48445,.33502E-3,.12144E-3,0
SKYSAT-C7,2017-068E,2026-07-01T04:32:02.294880,15.37200956,.0006758,97.4554,320.0186,66.0148,294.1803,0,U,42991,999,48452,.35993E-3,.13045E-3,0
SKYSAT-C6,2017-068F,2026-06-30T20:15:04.040928,15.34195686,.0005215,97.4588,319.5850,114.0395,246.1394,0,U,42992,999,48441,.31346E-3,.10301E-3,0
CARTOSAT-2F,2018-004A,2026-07-01T04:07:10.619616,15.19174110,.0001569,97.4783,241.6695,167.6032,192.5241,0,U,43111,999,46945,.24654E-3,.5117E-4,0
GAOFEN-1 02,2018-031A,2026-07-01T04:35:59.939808,14.76453286,.0002409,98.0525,244.6788,352.2251,7.8920,0,U,43259,999,44476,.69113E-4,.429E-5,0
GAOFEN-1 03,2018-031B,2026-07-01T04:04:19.795584,14.76445440,.0003403,98.0511,244.5143,50.1647,309.9861,0,U,43260,999,44475,.12013E-3,.784E-5,0
GAOFEN-1 04,2018-031D,2026-07-01T05:07:02.836992,14.76454237,.0001845,98.0527,244.7501,63.7685,296.3714,0,U,43262,999,44475,.13577E-3,.893E-5,0
SENTINEL-3B,2018-039A,2026-07-01T03:29:35.996064,14.26738783,.000081,98.6244,249.4773,116.7253,243.4011,0,U,43437,999,42611,.74094E-4,.136E-5,0
GAOFEN-5 01,2018-043A,2026-07-01T04:10:11.237088,14.60615233,.0002764,98.4578,154.0542,58.4120,301.7349,0,U,43461,999,43373,.84445E-4,.362E-5,0
GAOFEN-6,2018-048A,2026-07-01T04:00:45.110592,14.76365938,.0011865,98.0969,244.8350,121.2507,238.9866,0,U,43484,999,43545,-.31593E-4,-.272E-5,0
GAOFEN-11 01,2018-063A,2026-07-01T04:44:35.189664,15.55689051,.0002091,97.1291,249.0400,275.7360,84.3657,0,U,43585,999,44252,.24965E-3,.17079E-3,0
ICESAT-2,2018-070A,2026-07-01T04:01:10.674624,15.28275001,.0006184,92.0094,294.7562,88.1109,272.0848,0,U,43613,999,43459,.42714E-3,.11771E-3,0
HYSIS,2018-096A,2026-07-01T03:38:28.708224,14.78644679,.0001841,97.9840,248.7896,90.8041,269.3381,0,U,43719,999,40948,.16227E-3,.1137E-4,0
KAZSTSAT,2018-099AB,2026-07-01T00:58:28.647840,14.99916431,.0008391,97.4297,213.3415,30.8558,329.3158,0,U,43783,999,41338,.17451E-3,.211E-4,0
