SKYSAT-C4               
1 41771U 16058B   26182.02929069  .00020906  00000+0  38714-3 0  9998
2 41771  96.9165 203.2248 0002510 137.9147 222.2298 15.49022400547616
SKYSAT-C5               
1 41772U 16058C   26182.05839470  .00009675  00000+0  29014-3 0  9991
2 41772  97.0459 222.0804 0001770 196.4961 163.6226 15.34666451545872
SKYSAT-C2               
1 41773U 16058D   26182.01484269  .00014290  00000+0  33264-3 0  9991
2 41773  97.0157 203.5909 0003340  38.8322 321.3166 15.42382724547182
SKYSAT-C3               
1 41774U 16058E   26182.06280977  .00031215  00000+0  49848-3 0  9998
2 41774  96.9000 212.3802 0001375 130.0913 230.0462 15.53133828548261
ALSAT-1B                
1 41785U 16059C   26182.17263201 -.00000037  00000+0  16573-5 0  9994
2 41785  97.7743 190.3325 0009225 172.0786 188.0569 14.72283624522630
PATHFINDER 1            
1 41787U 16059E   26181.97637546  .00000646  00000+0  12102-3 0  9997
2 41787  97.8168 180.6304 0028926 159.5279 200.7093 14.67678797521736
SCATSAT 1               
1 41790U 16059H   26182.07738152  .00001452  00000+0  19679-3 0  9990
2 41790  98.1186 245.9867 0054163 201.9871 157.9016 14.79557620103643
GOKTURK 1A              
1 41875U 16073A   26182.13170596  .00000355  00000+0  78755-4 0  9991
2 41875  98.1241  76.5875 0001428  77.6673 282.4689 14.62784134510860
RESOURCESAT-2A          
1 41877U 16074A   26182.14725031 -.00000262  00000+0 -99425-4 0  9991
2 41877  98.7531 255.5373 0003096  56.8145 303.3329 14.21603959496281
CARTOSAT-2D             
1 41948U 17008A   26182.18741231  .00004463  00000+0  21454-3 0  9993
2 41948  97.4099 241.2317 0005225 179.1689 180.9556 15.19310571519700
SENTINEL-2B             
1 42063U 17013A   26182.19349388 -.00000131  00000+0 -33302-4 0  9992
2 42063  98.5696 256.7701 0001210  90.7816 269.3505 14.30819877486649
CARTOSAT-2E             
1 42767U 17036C   26182.20520346  .00003418  00000+0  16528-3 0  9994
2 42767  97.4270 241.7760 0002334 243.8457 116.2537 15.19271462500276
FORMOSAT-5              
1 42920U 17049A   26182.12139304  .00000173  00000+0  54921-4 0  9995
2 42920  98.2252 257.1215 0012229  45.4196 314.7995 14.50903839468698
SENTINEL-5P             
1 42969U 17064A   26182.08761259  .00000055  00000+0  47282-4 0  9991
2 42969  98.7927 124.1201 0001034  90.4934 269.6360 14.19521235451535
SKYSAT-C11              
1 42987U 17068A   26181.86414282  .00031749  00000+0  41486-3 0  9994
2 42987  97.4363 331.2973 0000518 147.4382 212.6906 15.58601191485375
SKYSAT-C10              
1 42988U 17068B   26182.11463975  .00010411  00000+0  31021-3 0  9994
2 42988  97.4524 319.0999 0001239 107.8113 252.3265 15.34869166484493
SKYSAT-C9               
1 42989U 17068C   26182.19346819  .00016913  00000+0  39911-3 0  9999
2 42989  97.4445 320.2490 0009439  89.2062 271.0266 15.41906433484915
SKYSAT-C8               
1 42990U 17068D   26182.12976844  .00012144  00000+0  33502-3 0  9993
2 42990  97.4541 318.9685 0001314  94.5977 265.5418 15.37245169484455
SKYSAT-C7               
1 42991U 17068E   26182.18891545  .00013045  00000+0  35993-3 0  9991
2 42991  97.4554 320.0186 0006758  66.0148 294.1803 15.37200956484520
SKYSAT-C6               
1 42992U 17068F   26181.84379677  .00010301  00000+0  31346-3 0  9991
2 42992  97.4588 319.5850 0005215 114.0395 246.1394 15.34195686484414
CARTOSAT-2F             
1 43111U 18004A   26182.17165069  .00005117  00000+0  24654-3 0  9994
2 43111  97.4783 241.6695 0001569 167.6032 192.5241 15.19174110469451
GAOFEN-1 02             
1 43259U 18031A   26182.19166597  .00000429  00000+0  69113-4 0  9997
2 43259  98.0525 244.6788 0002409 352.2251   7.8920 14.76453286444765
GAOFEN-1 03             
1 43260U 18031B   26182.16967356  .00000784  00000+0  12013-3 0  9998
2 43260  98.0511 244.5143 0003403  50.1647 309.9861 14.76445440444756
GAOFEN-1 04             
1 43262U 18031D   26182.21322728  .00000893  00000+0  13577-3 0  9991
2 43262  98.0527 244.7501 0001845  63.7685 296.3714 14.76454237444755
SENTINEL-3B             
1 43437U 18039A   26182.14555551  .00000136  00000+0  74094-4 0  9999
2 43437  98.6244 249.4773 0000810 116.7253 243.4011 14.26738783426114
GAOFEN-5 01             
1 43461U 18043A   26182.17374117  .00000362  00000+0  84445-4 0  9993
2 43461  98.4578 154.0542 0002764  58.4120 301.7349 14.60615233433739
GAOFEN-6                
1 43484U 18048A   26182.16718878 -.00000272  00000+0 -31593-4 0  9996
2 43484  98.0969 244.8350 0011865 121.2507 238.9866 14.76365938435456
GAOFEN-11 01            
1 43585U 18063A   26182.19762951  .00017079  00000+0  24965-3 0  9994
2 43585  97.1291 249.0400 0002091 275.7360  84.3657 15.55689051442522
ICESAT-2                
1 43613U 18070A   26182.16748466  .00011771  00000+0  42714-3 0  9991
2 43613  92.0094 294.7562 0006184  88.1109 272.0848 15.28275001434591
HYSIS                   
1 43719U 18096A   26182.15172116  .00001137  00000+0  16227-3 0  9993
2 43719  97.9840 248.7896 0001841  90.8041 269.3381 14.78644679409486
KAZSTSAT                
1 43783U 18099AB  26182.04060935  .00002110  00000+0  17451-3 0  9992
2 43783  97.4297 213.3415 0008391  30.8558 329.3158 14.99916431413381
